{"type": "FeatureCollection", "features": [ {"type": "Feature", "properties": {"norad_id": 31567, "name": "FENGYUN 1C DEB", "group": "fengyun-1c-debris", "lat": 12.226391998754293, "lon": 55.45033987852952, "alt_km": 955.5692911373635, "timestamp": "2025-12-27T06:41:31.209642+00:00", "meta": {"OBJECT_NAME": "FENGYUN 1C DEB", "OBJECT_ID": "1999-025BZJ", "EPOCH": "2025-12-26T02:17:28.696992", "MEAN_MOTION": 13.92983311, "ECCENTRICITY": 0.01863174, "INCLINATION": 102.3177, "RA_OF_ASC_NODE": 231.1667, "ARG_OF_PERICENTER": 276.7653, "MEAN_ANOMALY": 81.2326, "EPHEMERIS_TYPE": 0, "CLASSIFICATION_TYPE": "U", "NORAD_CAT_ID": 31567, "ELEMENT_SET_NO": 999, "REV_AT_EPOCH": 67595, "BSTAR": 0.0026184906, "MEAN_MOTION_DOT": 3.855e-05, "MEAN_MOTION_DDOT": 0}, "tle": {"line1": "1 31567U 99025BZJ 25360.09547103  .00003855  00000+0  26185-2 0  9996", "line2": "2 31567 102.3177 231.1667 0186317 276.7653  81.2326 13.92983311675957"}}, "geometry": {"type": "Point", "coordinates": [55.45033987852952, 12.226391998754293]}}, {"type": "Feature", "properties": {"norad_id": 31568, "name": "FENGYUN 1C DEB", "group": "fengyun-1c-debris", "lat": 6.18581672896588, "lon": 69.38256366189033, "alt_km": 883.1479233606469, "timestamp": "2025-12-27T06:41:31.209653+00:00", "meta": {"OBJECT_NAME": "FENGYUN 1C DEB", "OBJECT_ID": "1999-025BZK", "EPOCH": "2025-12-22T23:13:36.644736", "MEAN_MOTION": 14.03431945, "ECCENTRICITY": 0.01239953, "INCLINATION": 102.049, "RA_OF_ASC_NODE": 242.3634, "ARG_OF_PERICENTER": 93.8828, "MEAN_ANOMALY": 267.6513, "EPHEMERIS_TYPE": 0, "CLASSIFICATION_TYPE": "U", "NORAD_CAT_ID": 31568, "ELEMENT_SET_NO": 999, "REV_AT_EPOCH": 94723, "BSTAR": 0.0030433024, "MEAN_MOTION_DOT": 5.034e-05, "MEAN_MOTION_DDOT": 0}, "tle": {"line1": "1 31568U 99025BZK 25356.96778524  .00005034  00000+0  30433-2 0  9993", "line2": "2 31568 102.0490 242.3634 0123995  93.8828 267.6513 14.03431945947231"}}, "geometry": {"type": "Point", "coordinates": [69.38256366189033, 6.18581672896588]}}, {"type": "Feature", "properties": {"norad_id": 31569, "name": "FENGYUN 1C DEB", "group": "fengyun-1c-debris", "lat": -53.0176230592645, "lon": -178.8978690538692, "alt_km": 800.8317956182864, "timestamp": "2025-12-27T06:41:31.209663+00:00", "meta": {"OBJECT_NAME": "FENGYUN 1C DEB", "OBJECT_ID": "1999-025BZL", "EPOCH": "2025-12-26T06:00:17.966016", "MEAN_MOTION": 13.95617313, "ECCENTRICITY": 0.0174856, "INCLINATION": 102.6154, "RA_OF_ASC_NODE": 162.3987, "ARG_OF_PERICENTER": 333.5969, "MEAN_ANOMALY": 206.7911, "EPHEMERIS_TYPE": 0, "CLASSIFICATION_TYPE": "U", "NORAD_CAT_ID": 31569, "ELEMENT_SET_NO": 999, "REV_AT_EPOCH": 93867, "BSTAR": 0.0023981, "MEAN_MOTION_DOT": 3.638e-05, "MEAN_MOTION_DDOT": 0}, "tle": {"line1": "1 31569U 99025BZL 25360.25020794  .00003638  00000+0  23981-2 0  9998", "line2": "2 31569 102.6154 162.3987 0174856 333.5969 206.7911 13.95617313938678"}}, "geometry": {"type": "Point", "coordinates": [-178.8978690538692, -53.0176230592645]}}, {"type": "Feature", "properties": {"norad_id": 31570, "name": "FENGYUN 1C DEB", "group": "fengyun-1c-debris", "lat": -54.05128302650095, "lon": 64.34084486274583, "alt_km": 861.4761890854152, "timestamp": "2025-12-27T06:41:31.209673+00:00", "meta": {"OBJECT_NAME": "FENGYUN 1C DEB", "OBJECT_ID": "1999-025BZM", "EPOCH": "2025-12-19T23:45:35.930016", "MEAN_MOTION": 14.25330142, "ECCENTRICITY": 0.01547682, "INCLINATION": 102.5663, "RA_OF_ASC_NODE": 36.0247, "ARG_OF_PERICENTER": 206.1842, "MEAN_ANOMALY": 153.1437, "EPHEMERIS_TYPE": 0, "CLASSIFICATION_TYPE": "U", "NORAD_CAT_ID": 31570, "ELEMENT_SET_NO": 999, "REV_AT_EPOCH": 63470, "BSTAR": 0.0019503601, "MEAN_MOTION_DOT": 5.132e-05, "MEAN_MOTION_DDOT": 0}, "tle": {"line1": "1 31570U 99025BZM 25353.98999919  .00005132  00000+0  19504-2 0  9993", "line2": "2 31570 102.5663  36.0247 0154768 206.1842 153.1437 14.25330142634706"}}, "geometry": {"type": "Point", "coordinates": [64.34084486274583, -54.05128302650095]}}, {"type": "Feature", "properties": {"norad_id": 31608, "name": "FENGYUN 1C DEB", "group": "fengyun-1c-debris", "lat": -40.82210525195644, "lon": 127.5096030548397, "alt_km": 530.263797188577, "timestamp": "2025-12-27T06:41:31.209683+00:00", "meta": {"OBJECT_NAME": "FENGYUN 1C DEB", "OBJECT_ID": "1999-025BZN", "EPOCH": "2025-12-17T14:09:29.850912", "MEAN_MOTION": 14.85908283, "ECCENTRICITY": 0.01457059, "INCLINATION": 98.3797, "RA_OF_ASC_NODE": 109.9897, "ARG_OF_PERICENTER": 22.0076, "MEAN_ANOMALY": 338.7309, "EPHEMERIS_TYPE": 0, "CLASSIFICATION_TYPE": "U", "NORAD_CAT_ID": 31608, "ELEMENT_SET_NO": 999, "REV_AT_EPOCH": 98705, "BSTAR": 0.00045964647, "MEAN_MOTION_DOT": 4.79e-05, "MEAN_MOTION_DDOT": 0}, "tle": {"line1": "1 31608U 99025BZN 25351.58992883  .00004790  00000+0  45965-3 0  9992", "line2": "2 31608  98.3797 109.9897 0145705  22.0076 338.7309 14.85908283987055"}}, "geometry": {"type": "Point", "coordinates": [127.5096030548397, -40.82210525195644]}}, {"type": "Feature", "properties": {"norad_id": 31609, "name": "FENGYUN 1C DEB", "group": "fengyun-1c-debris", "lat": 80.69538939861772, "lon": -51.88878023024717, "alt_km": 899.0278112867845, "timestamp": "2025-12-27T06:41:31.209696+00:00", "meta": {"OBJECT_NAME": "FENGYUN 1C DEB", "OBJECT_ID": "1999-025BZP", "EPOCH": "2025-12-22T21:42:13.279104", "MEAN_MOTION": 14.15844126, "ECCENTRICITY": 0.0094714, "INCLINATION": 99.2139, "RA_OF_ASC_NODE": 25.7728, "ARG_OF_PERICENTER": 291.5289, "MEAN_ANOMALY": 191.9396, "EPHEMERIS_TYPE": 0, "CLASSIFICATION_TYPE": "U", "NORAD_CAT_ID": 31609, "ELEMENT_SET_NO": 999, "REV_AT_EPOCH": 66228, "BSTAR": 0.002391, "MEAN_MOTION_DOT": 4.866e-05, "MEAN_MOTION_DDOT": 0}, "tle": {"line1": "1 31609U 99025BZP 25356.90432036  .00004866  00000+0  23910-2 0  9992", "line2": "2 31609  99.2139  25.7728 0094714 291.5289 191.9396 14.15844126662284"}}, "geometry": {"type": "Point", "coordinates": [-51.88878023024717, 80.69538939861772]}}, {"type": "Feature", "properties": {"norad_id": 31612, "name": "FENGYUN 1C DEB", "group": "fengyun-1c-debris", "lat": -41.15828036664129, "lon": 94.70338105994072, "alt_km": 356.9462294176292, "timestamp": "2025-12-27T06:41:31.209706+00:00", "meta": {"OBJECT_NAME": "FENGYUN 1C DEB", "OBJECT_ID": "1999-025BZS", "EPOCH": "2025-12-26T17:35:17.462400", "MEAN_MOTION": 15.78611667, "ECCENTRICITY": 0.00275304, "INCLINATION": 100.3335, "RA_OF_ASC_NODE": 283.0666, "ARG_OF_PERICENTER": 64.7576, "MEAN_ANOMALY": 295.653, "EPHEMERIS_TYPE": 0, "CLASSIFICATION_TYPE": "U", "NORAD_CAT_ID": 31612, "ELEMENT_SET_NO": 999, "REV_AT_EPOCH": 225, "BSTAR": 0.0020836353, "MEAN_MOTION_DOT": 0.00386959, "MEAN_MOTION_DDOT": 0}, "tle": {"line1": "1 31612U 99025BZS 25360.73284100  .00386959  00000+0  20836-2 0  9999", "line2": "2 31612 100.3335 283.0666 0027530  64.7576 295.6530 15.78611667  2250"}}, "geometry": {"type": "Point", "coordinates": [94.70338105994072, -41.15828036664129]}}, {"type": "Feature", "properties": {"norad_id": 31613, "name": "FENGYUN 1C DEB", "group": "fengyun-1c-debris", "lat": -43.050212723328755, "lon": -1.5487409882014518, "alt_km": 1259.9216351735386, "timestamp": "2025-12-27T06:41:31.209716+00:00", "meta": {"OBJECT_NAME": "FENGYUN 1C DEB", "OBJECT_ID": "1999-025BZT", "EPOCH": "2025-12-23T06:31:23.498400", "MEAN_MOTION": 13.63471347, "ECCENTRICITY": 0.03426742, "INCLINATION": 98.424, "RA_OF_ASC_NODE": 182.93, "ARG_OF_PERICENTER": 78.1321, "MEAN_ANOMALY": 285.8034, "EPHEMERIS_TYPE": 0, "CLASSIFICATION_TYPE": "U", "NORAD_CAT_ID": 31613, "ELEMENT_SET_NO": 999, "REV_AT_EPOCH": 91905, "BSTAR": 0.0011595288, "MEAN_MOTION_DOT": 1.328e-05, "MEAN_MOTION_DDOT": 0}, "tle": {"line1": "1 31613U 99025BZT 25357.27179975  .00001328  00000+0  11595-2 0  9994", "line2": "2 31613  98.4240 182.9300 0342674  78.1321 285.8034 13.63471347919057"}}, "geometry": {"type": "Point", "coordinates": [-1.5487409882014518, -43.050212723328755]}}, {"type": "Feature", "properties": {"norad_id": 31614, "name": "FENGYUN 1C DEB", "group": "fengyun-1c-debris", "lat": 45.701256204885084, "lon": 98.56115449629982, "alt_km": 574.3497536595496, "timestamp": "2025-12-27T06:41:31.209726+00:00", "meta": {"OBJECT_NAME": "FENGYUN 1C DEB", "OBJECT_ID": "1999-025BZU", "EPOCH": "2025-12-26T17:31:59.437920", "MEAN_MOTION": 14.99923397, "ECCENTRICITY": 0.00168729, "INCLINATION": 98.9718, "RA_OF_ASC_NODE": 268.6124, "ARG_OF_PERICENTER": 325.9958, "MEAN_ANOMALY": 88.5438, "EPHEMERIS_TYPE": 0, "CLASSIFICATION_TYPE": "U", "NORAD_CAT_ID": 31614, "ELEMENT_SET_NO": 999, "REV_AT_EPOCH": 96639, "BSTAR": 0.0080646768, "MEAN_MOTION_DOT": 0.00101715, "MEAN_MOTION_DDOT": 0}, "tle": {"line1": "1 31614U 99025BZU 25360.73054905  .00101715  00000+0  80647-2 0  9990", "line2": "2 31614  98.9718 268.6124 0016872 325.9958  88.5438 14.99923397966398"}}, "geometry": {"type": "Point", "coordinates": [98.56115449629982, 45.701256204885084]}}, {"type": "Feature", "properties": {"norad_id": 31615, "name": "FENGYUN 1C DEB", "group": "fengyun-1c-debris", "lat": -75.91499711215839, "lon": -166.335225859581, "alt_km": 664.737748843485, "timestamp": "2025-12-27T06:41:31.209736+00:00", "meta": {"OBJECT_NAME": "FENGYUN 1C DEB", "OBJECT_ID": "1999-025BZV", "EPOCH": "2025-12-26T09:24:16.315200", "MEAN_MOTION": 14.35598935, "ECCENTRICITY": 0.0167011, "INCLINATION": 99.1382, "RA_OF_ASC_NODE": 52.631, "ARG_OF_PERICENTER": 276.6682, "MEAN_ANOMALY": 81.5518, "EPHEMERIS_TYPE": 0, "CLASSIFICATION_TYPE": "U", "NORAD_CAT_ID": 31615, "ELEMENT_SET_NO": 999, "REV_AT_EPOCH": 65474, "BSTAR": 0.0030541, "MEAN_MOTION_DOT": 0.00010274, "MEAN_MOTION_DDOT": 0}, "tle": {"line1": "1 31615U 99025BZV 25360.39185550  .00010274  00000+0  30541-2 0  9991", "line2": "2 31615  99.1382  52.6310 0167011 276.6682  81.5518 14.35598935654746"}}, "geometry": {"type": "Point", "coordinates": [-166.335225859581, -75.91499711215839]}}]}